CCSDS_OMM_VERS = 2.0
CREATION_DATE  = 
ORIGINATOR     = 

OBJECT_NAME    = STARLINK-36782
OBJECT_ID      = 2026-032J
CENTER_NAME    = EARTH
REF_FRAME      = TEME
TIME_SYSTEM    = UTC
MEAN_ELEMENT_THEORY = SGP/SGP4

EPOCH          = 2026-03-08T04:00:01.999584
MEAN_MOTION    = 15.75199163
ECCENTRICITY   = .0001618
INCLINATION    = 97.2855
RA_OF_ASC_NODE = 253.6540
ARG_OF_PERICENTER = 101.5075
MEAN_ANOMALY   = 74.2907

EPHEMERIS_TYPE = 0
CLASSIFICATION_TYPE = U
NORAD_CAT_ID   = 67805
ELEMENT_SET_NO = 999
REV_AT_EPOCH   = 453
BSTAR          = -.2167E-3
MEAN_MOTION_DOT = -.32344E-3
MEAN_MOTION_DDOT = 0

CCSDS_OMM_VERS = 2.0
CREATION_DATE  = 
ORIGINATOR     = 

OBJECT_NAME    = STARLINK-36389
OBJECT_ID      = 2026-032K
CENTER_NAME    = EARTH
REF_FRAME      = TEME
TIME_SYSTEM    = UTC
MEAN_ELEMENT_THEORY = SGP/SGP4

EPOCH          = 2026-03-08T02:03:13.472640
MEAN_MOTION    = 15.75228528
ECCENTRICITY   = .0001731
INCLINATION    = 97.2841
RA_OF_ASC_NODE = 253.5348
ARG_OF_PERICENTER = 79.3569
MEAN_ANOMALY   = 280.7891

EPHEMERIS_TYPE = 0
CLASSIFICATION_TYPE = U
NORAD_CAT_ID   = 67806
ELEMENT_SET_NO = 999
REV_AT_EPOCH   = 453
BSTAR          = .12538E-2
MEAN_MOTION_DOT = .191449E-2
MEAN_MOTION_DDOT = 0

CCSDS_OMM_VERS = 2.0
CREATION_DATE  = 
ORIGINATOR     = 

OBJECT_NAME    = STARLINK-36382
OBJECT_ID      = 2026-032L
CENTER_NAME    = EARTH
REF_FRAME      = TEME
TIME_SYSTEM    = UTC
MEAN_ELEMENT_THEORY = SGP/SGP4

EPOCH          = 2026-03-08T02:00:10.592352
MEAN_MOTION    = 15.75213339
ECCENTRICITY   = .0001474
INCLINATION    = 97.2844
RA_OF_ASC_NODE = 253.5370
ARG_OF_PERICENTER = 93.5751
MEAN_ANOMALY   = 266.5682

EPHEMERIS_TYPE = 0
CLASSIFICATION_TYPE = U
NORAD_CAT_ID   = 67807
ELEMENT_SET_NO = 999
REV_AT_EPOCH   = 453
BSTAR          = .98521E-3
MEAN_MOTION_DOT = .149573E-2
MEAN_MOTION_DDOT = 0

CCSDS_OMM_VERS = 2.0
CREATION_DATE  = 
ORIGINATOR     = 

OBJECT_NAME    = STARLINK-36811
OBJECT_ID      = 2026-032M
CENTER_NAME    = EARTH
REF_FRAME      = TEME
TIME_SYSTEM    = UTC
MEAN_ELEMENT_THEORY = SGP/SGP4

EPOCH          = 2026-03-08T04:00:01.999584
MEAN_MOTION    = 15.75185396
ECCENTRICITY   = .0001704
INCLINATION    = 97.2856
RA_OF_ASC_NODE = 253.6505
ARG_OF_PERICENTER = 95.0536
MEAN_ANOMALY   = 72.7397

EPHEMERIS_TYPE = 0
CLASSIFICATION_TYPE = U
NORAD_CAT_ID   = 67808
ELEMENT_SET_NO = 999
REV_AT_EPOCH   = 453
BSTAR          = .75158E-4
MEAN_MOTION_DOT = .11093E-3
MEAN_MOTION_DDOT = 0

CCSDS_OMM_VERS = 2.0
CREATION_DATE  = 
ORIGINATOR     = 

OBJECT_NAME    = STARLINK-36795
OBJECT_ID      = 2026-032N
CENTER_NAME    = EARTH
REF_FRAME      = TEME
TIME_SYSTEM    = UTC
MEAN_ELEMENT_THEORY = SGP/SGP4

EPOCH          = 2026-03-08T02:10:20.457984
MEAN_MOTION    = 15.75228338
ECCENTRICITY   = .0001722
INCLINATION    = 97.2839
RA_OF_ASC_NODE = 253.5277
ARG_OF_PERICENTER = 77.9702
MEAN_ANOMALY   = 282.1756

EPHEMERIS_TYPE = 0
CLASSIFICATION_TYPE = U
NORAD_CAT_ID   = 67809
ELEMENT_SET_NO = 999
REV_AT_EPOCH   = 453
BSTAR          = .12558E-2
MEAN_MOTION_DOT = .191774E-2
MEAN_MOTION_DDOT = 0

CCSDS_OMM_VERS = 2.0
CREATION_DATE  = 
ORIGINATOR     = 

OBJECT_NAME    = STARLINK-36807
OBJECT_ID      = 2026-032P
CENTER_NAME    = EARTH
REF_FRAME      = TEME
TIME_SYSTEM    = UTC
MEAN_ELEMENT_THEORY = SGP/SGP4

EPOCH          = 2026-03-08T04:00:01.999584
MEAN_MOTION    = 15.75190695
ECCENTRICITY   = .0001616
INCLINATION    = 97.2856
RA_OF_ASC_NODE = 253.6459
ARG_OF_PERICENTER = 109.7909
MEAN_ANOMALY   = 52.0010

EPHEMERIS_TYPE = 0
CLASSIFICATION_TYPE = U
NORAD_CAT_ID   = 67810
ELEMENT_SET_NO = 999
REV_AT_EPOCH   = 453
BSTAR          = -.13035E-3
MEAN_MOTION_DOT = -.19528E-3
MEAN_MOTION_DDOT = 0

CCSDS_OMM_VERS = 2.0
CREATION_DATE  = 
ORIGINATOR     = 

OBJECT_NAME    = STARLINK-36733
OBJECT_ID      = 2026-032Q
CENTER_NAME    = EARTH
REF_FRAME      = TEME
TIME_SYSTEM    = UTC
MEAN_ELEMENT_THEORY = SGP/SGP4

EPOCH          = 2026-03-06T23:39:49.785696
MEAN_MOTION    = 15.80984946
ECCENTRICITY   = .00010197
INCLINATION    = 97.2826
RA_OF_ASC_NODE = 252.4272
ARG_OF_PERICENTER = 92.9065
MEAN_ANOMALY   = 267.2320

EPHEMERIS_TYPE = 0
CLASSIFICATION_TYPE = U
NORAD_CAT_ID   = 67811
ELEMENT_SET_NO = 999
REV_AT_EPOCH   = 436
BSTAR          = .1695664E-2
MEAN_MOTION_DOT = .340272E-2
MEAN_MOTION_DDOT = 0

CCSDS_OMM_VERS = 2.0
CREATION_DATE  = 
ORIGINATOR     = 

OBJECT_NAME    = STARLINK-36377
OBJECT_ID      = 2026-032R
CENTER_NAME    = EARTH
REF_FRAME      = TEME
TIME_SYSTEM    = UTC
MEAN_ELEMENT_THEORY = SGP/SGP4

EPOCH          = 2026-03-08T04:00:01.999584
MEAN_MOTION    = 15.75233636
ECCENTRICITY   = .0001801
INCLINATION    = 97.2854
RA_OF_ASC_NODE = 253.6750
ARG_OF_PERICENTER = 93.9440
MEAN_ANOMALY   = 135.8161

EPHEMERIS_TYPE = 0
CLASSIFICATION_TYPE = U
NORAD_CAT_ID   = 67812
ELEMENT_SET_NO = 999
REV_AT_EPOCH   = 453
BSTAR          = -.41838E-3
MEAN_MOTION_DOT = -.62202E-3
MEAN_MOTION_DDOT = 0

CCSDS_OMM_VERS = 2.0
CREATION_DATE  = 
ORIGINATOR     = 

OBJECT_NAME    = STARLINK-36732
OBJECT_ID      = 2026-032S
CENTER_NAME    = EARTH
REF_FRAME      = TEME
TIME_SYSTEM    = UTC
MEAN_ELEMENT_THEORY = SGP/SGP4

EPOCH          = 2026-03-08T04:00:01.999584
MEAN_MOTION    = 15.75169415
ECCENTRICITY   = .0001299
INCLINATION    = 97.2856
RA_OF_ASC_NODE = 253.6618
ARG_OF_PERICENTER = 88.4514
MEAN_ANOMALY   = 113.3408

EPHEMERIS_TYPE = 0
CLASSIFICATION_TYPE = U
NORAD_CAT_ID   = 67813
ELEMENT_SET_NO = 999
REV_AT_EPOCH   = 453
BSTAR          = .14366E-3
MEAN_MOTION_DOT = .21333E-3
MEAN_MOTION_DDOT = 0

CCSDS_OMM_VERS = 2.0
CREATION_DATE  = 
ORIGINATOR     = 

OBJECT_NAME    = STARLINK-36767
OBJECT_ID      = 2026-032T
CENTER_NAME    = EARTH
REF_FRAME      = TEME
TIME_SYSTEM    = UTC
MEAN_ELEMENT_THEORY = SGP/SGP4

EPOCH          = 2026-03-08T02:05:46.015296
MEAN_MOTION    = 15.75241780
ECCENTRICITY   = .0001491
INCLINATION    = 97.2838
RA_OF_ASC_NODE = 253.5303
ARG_OF_PERICENTER = 93.7326
MEAN_ANOMALY   = 266.4110

EPHEMERIS_TYPE = 0
CLASSIFICATION_TYPE = U
NORAD_CAT_ID   = 67814
ELEMENT_SET_NO = 999
REV_AT_EPOCH   = 453
BSTAR          = .14083E-2
MEAN_MOTION_DOT = .215803E-2
MEAN_MOTION_DDOT = 0

CCSDS_OMM_VERS = 2.0
CREATION_DATE  = 
ORIGINATOR     = 

OBJECT_NAME    = STARLINK-36797
OBJECT_ID      = 2026-032U
CENTER_NAME    = EARTH
REF_FRAME      = TEME
TIME_SYSTEM    = UTC
MEAN_ELEMENT_THEORY = SGP/SGP4

EPOCH          = 2026-03-08T03:24:32.590368
MEAN_MOTION    = 15.75214127
ECCENTRICITY   = .000137
INCLINATION    = 97.2851
RA_OF_ASC_NODE = 253.6096
ARG_OF_PERICENTER = 96.1948
MEAN_ANOMALY   = 263.9474

EPHEMERIS_TYPE = 0
CLASSIFICATION_TYPE = U
NORAD_CAT_ID   = 67815
ELEMENT_SET_NO = 999
REV_AT_EPOCH   = 454
BSTAR          = .10496E-2
MEAN_MOTION_DOT = .159542E-2
MEAN_MOTION_DDOT = 0

CCSDS_OMM_VERS = 2.0
CREATION_DATE  = 
ORIGINATOR     = 

OBJECT_NAME    = STARLINK-36343
OBJECT_ID      = 2026-032V
CENTER_NAME    = EARTH
REF_FRAME      = TEME
TIME_SYSTEM    = UTC
MEAN_ELEMENT_THEORY = SGP/SGP4

EPOCH          = 2026-03-08T04:00:01.999584
MEAN_MOTION    = 15.75179908
ECCENTRICITY   = .000162
INCLINATION    = 97.2852
RA_OF_ASC_NODE = 253.6823
ARG_OF_PERICENTER = 96.3254
MEAN_ANOMALY   = 155.4665

EPHEMERIS_TYPE = 0
CLASSIFICATION_TYPE = U
NORAD_CAT_ID   = 67816
ELEMENT_SET_NO = 999
REV_AT_EPOCH   = 447
BSTAR          = -.13586E-4
MEAN_MOTION_DOT = -.2155E-4
MEAN_MOTION_DDOT = 0

