STARLINK-36782          
1 67805U 26032J   26067.16668981 -.00032344  00000+0 -21670-3 0  9991
2 67805  97.2855 253.6540 0001618 101.5075  74.2907 15.75199163  4532
STARLINK-36389          
1 67806U 26032K   26067.08557260  .00191449  00000+0  12538-2 0  9992
2 67806  97.2841 253.5348 0001731  79.3569 280.7891 15.75228528  4533
STARLINK-36382          
1 67807U 26032L   26067.08345593  .00149573  00000+0  98521-3 0  9995
2 67807  97.2844 253.5370 0001474  93.5751 266.5682 15.75213339  4531
STARLINK-36811          
1 67808U 26032M   26067.16668981  .00011093  00000+0  75158-4 0  9991
2 67808  97.2856 253.6505 0001704  95.0536  72.7397 15.75185396  4531
STARLINK-36795          
1 67809U 26032N   26067.09051456  .00191774  00000+0  12558-2 0  9995
2 67809  97.2839 253.5277 0001722  77.9702 282.1756 15.75228338  4532
STARLINK-36807          
1 67810U 26032P   26067.16668981 -.00019528  00000+0 -13035-3 0  9992
2 67810  97.2856 253.6459 0001616 109.7909  52.0010 15.75190695  4532
STARLINK-36733          
1 67811U 26032Q   26065.98599289  .00340272  00000+0  16957-2 0  9991
2 67811  97.2826 252.4272 0001019  92.9065 267.2320 15.80984946  4364
STARLINK-36377          
1 67812U 26032R   26067.16668981 -.00062202  00000+0 -41838-3 0  9993
2 67812  97.2854 253.6750 0001801  93.9440 135.8161 15.75233636  4536
STARLINK-36732          
1 67813U 26032S   26067.16668981  .00021333  00000+0  14366-3 0  9998
2 67813  97.2856 253.6618 0001299  88.4514 113.3408 15.75169415  4532
STARLINK-36767          
1 67814U 26032T   26067.08733814  .00215803  00000+0  14083-2 0  9990
2 67814  97.2838 253.5303 0001491  93.7326 266.4110 15.75241780  4533
STARLINK-36797          
1 67815U 26032U   26067.14204387  .00159542  00000+0  10496-2 0  9997
2 67815  97.2851 253.6096 0001370  96.1948 263.9474 15.75214127  4543
STARLINK-36343          
1 67816U 26032V   26067.16668981 -.00002155  00000+0 -13586-4 0  9998
2 67816  97.2852 253.6823 0001620  96.3254 155.4665 15.75179908  4479
